OPTICUBE 04             
1 41851U 16067D   18280.84229498 -.00000070  00000-0 -83209-6 0  9991
2 41851  97.9214  10.3950 0009597 144.5936 215.5924 14.96708938103943
AEROCUBE 8D             
1 41852U 16067E   18280.69085319 -.00000156  00000-0 -83863-5 0  9997
2 41852  97.9235  10.0754 0010415 143.8144 216.3783 14.96562967103908
AEROCUBE 8C             
1 41853U 16067F   18280.70770819  .00000005  00000-0  58002-5 0  9994
2 41853  97.9227  10.0478 0010744 146.7141 213.4757 14.96522041103905
PROMETHEUS 2-1          
1 41854U 16067G   18281.50738363  .00000294  00000-0  31048-4 0  9992
2 41854  97.9233  10.8966 0011112 144.3279 215.8687 14.96660512104027
PROMETHEUS 2-3          
1 41855U 16067H   18281.30955984  .00000387  00000-0  39233-4 0  9998
2 41855  97.9234  10.7034 0011301 145.3736 214.8223 14.96659747103991
ITF-2                   
1 41932U 98067KU  18281.47985702  .00123332  00000-0  47767-3 0  9999
2 41932  51.6271 113.3275 0003563 259.6656 100.3947 15.86324742 98688
AOBA-VELOX 3            
1 41935U 98067KX  18281.00310392  .00315075  52706-4  61453-3 0  9997
2 41935  51.6279 105.4891 0005534 268.7618  91.2758 15.99679309 98846
INS-1B                  
1 41954U 17008G   18281.38269998  .00001748  00000-0  76653-4 0  9994
2 41954  97.4348 344.3441 0008231 324.3985  35.6701 15.23292898 91237
BGUSAT                  
1 41999U 17008BD  18280.77301862  .00002219  00000-0  91701-4 0  9997
2 41999  97.4399 345.1525 0007652 346.2607  13.8421 15.25038702 90582
DIDO-2                  
1 42000U 17008BE  18280.78740855  .00001036  00000-0  46512-4 0  9997
2 42000  97.4365 344.2378 0008064 348.1003  12.0042 15.23412153 90544
PEASSS                  
1 42015U 17008BV  18280.96712220  .00001334  00000-0  57579-4 0  9994
2 42015  97.4364 345.0120 0006191 358.4100   1.7116 15.24263764 91095
AL-FARABI 1             
1 42016U 17008BW  18280.72998673  .00001526  00000-0  64536-4 0  9991
2 42016  97.4375 345.0629 0006066 359.6168   0.5064 15.24740046 91193
NAYIF-1 (EO-88)         
1 42017U 17008BX  18281.50990901  .00001965  00000-0  82178-4 0  9994
2 42017  97.4371 345.8451 0005968 356.9275   3.1925 15.24771131 91330
HAVELSAT                
1 42700U 98067LH  18281.12828287  .00074870  00000-0  41980-3 0  9992
2 42700  51.6287 134.3741 0001660 301.4937  58.5902 15.78616959 79818
CXBN-2                  
1 42704U 98067LM  18280.99274240  .00061302  00000-0  35329-3 0  9990
2 42704  51.6311 136.5106 0002315 217.7140 142.3698 15.78082685 79695
PHOENIX                 
1 42706U 98067LP  18281.04840712  .00040114  00000-0  27650-3 0  9998
2 42706  51.6333 139.1610 0001410 204.7465 155.3467 15.74183232 79651
X-CUBESAT               
1 42707U 98067LQ  18281.04504248  .00076088  00000-0  39962-3 0  9998
2 42707  51.6300 133.7234 0002176 220.8869 139.1969 15.80054564 79711
QBEE50-LTU-OC           
1 42708U 98067LR  18281.20307103  .00073090  00000-0  41639-3 0  9992
2 42708  51.6300 134.8871 0001366 200.0103 160.0845 15.78272474 79672
ALTAIR PATHFINDER       
1 42711U 98067LS  18281.21823532  .00025970  00000-0  23811-3 0  9992
2 42711  51.6345 150.1085 0003157 229.3639 130.7083 15.67567580 79188
SHARC                   
1 42712U 98067LT  18281.21874690  .00050903  00000-0  41943-3 0  9994
2 42712  51.6351 150.9297 0002152 210.8390 149.2482 15.69843675 79410
ZA-AEROSAT              
1 42713U 98067LU  18281.49700928  .00043550  00000-0  31896-3 0  9993
2 42713  51.6327 140.6483 0002360 208.9565 151.1303 15.72723531 79337
CSUNSAT 1               
1 42715U 98067LW  18281.19974507  .00050339  00000-0  35024-3 0  9998
2 42715  51.6328 140.9306 0003484 220.9923 139.0815 15.73858709 79304
SPACECUBE               
1 42717U 98067LY  18281.11283320  .00065062  00000-0  37373-3 0  9996
2 42717  51.6256 135.7197 0001062 276.8450  83.2430 15.78134057 78738
HOOPOE                  
1 42718U 98067LZ  18281.55314940  .00117993  00000-0  49990-3 0  9997
2 42718  51.6253 127.3502 0002408 246.6795 113.3955 15.84485385 78888
NJUST-1                 
1 42722U 98067MB  18281.50997734  .00036890  00000-0  28742-3 0  9993
2 42722  51.6336 143.0266 0003453 290.0987  69.9639 15.71331431 78371
UNSW-ECO                
1 42723U 98067MC  18281.01316072  .00163976  00000-0  60748-3 0  9998
2 42723  51.6360 129.1086 0003379 260.0702  99.9921 15.87109286 78491
LILACSAT-1              
1 42725U 98067ME  18281.50834797  .00060820  00000-0  38828-3 0  9991
2 42725  51.6343 137.7303 0002483 275.1418  84.9298 15.75770174 78349
NSIGHT-1                
1 42726U 98067MF  18281.07555064  .00017753  00000-0  19243-3 0  9998
2 42726  51.6381 157.5102 0003915 294.8271  65.2316 15.63617701 78059
SNUSAT-1                
1 42727U 98067MG  18281.20533469  .00060035  00000-0  38564-3 0  9997
2 42727  51.6315 139.3771 0004609 249.8007 110.2497 15.75625039 78265
I-INSPIRE II            
1 42731U 98067ML  18281.01102041  .00187192  00000-0  64549-3 0  9995
2 42731  51.6314 127.4654 0005150 235.2614 124.7907 15.88484244 78296
POLYITAN-2-SAU          
1 42732U 98067MM  18281.19547661  .00080687  00000-0  42971-3 0  9992
2 42732  51.6312 134.0409 0004727 236.1610 123.8942 15.79715191 78222
SNUSAT-1B               
1 42733U 98067MN  18281.04595625  .00059020  00000-0  35873-3 0  9990
2 42733  51.6294 138.3367 0004703 239.2633 120.7905 15.76890087 78157
EXALTA-1                
1 42734U 98067MP  18281.39781374  .00246907  33808-4  75182-3 0  9992
2 42734  51.6223 123.8952 0005479 259.6417 100.3972 15.91533890 78326
BEEAGLESAT              
1 42736U 98067MR  18281.49265784  .00051177  00000-0  34741-3 0  9990
2 42736  51.6329 139.0917 0003450 283.3631  76.6983 15.74424050 78240
UCLSAT                  
1 42765U 17036A   18281.22634306  .00001686  00000-0  76493-4 0  9991
2 42765  97.3889 339.1942 0012871  46.4764 313.7540 15.22116643 71902
LITUANICASAT-2          
1 42768U 17036D   18280.91884789  .00002352  00000-0  10635-3 0  9997
2 42768  97.3911 338.4518 0016394  36.8305 323.4054 15.21796803 71707
AALTO-1                 
1 42775U 17036L   18280.93796610  .00000963  00000-0  46508-4 0  9997
2 42775  97.3880 338.1945 0015053  35.7656 324.4584 15.20926058 71636
URSA MAIOR              
1 42776U 17036M   18280.72073531  .00000926  00000-0  44732-4 0  9991
2 42776  97.3888 338.0575 0014898  36.7005 323.5248 15.21020711 71604
COMPASS 2               
1 42777U 17036N   18281.49505690  .00002147  00000-0  96656-4 0  9992
2 42777  97.3913 339.4047 0013714  37.3890 322.8298 15.22083020 71743
DIAMOND RED             
1 42783U 17036U   18281.38733064  .00001404  00000-0  64994-4 0  9990
2 42783  97.3890 339.1401 0013475  45.8475 314.3866 15.21684396 71729
PEGASUS                 
1 42784U 17036V   18281.34406551  .00001579  00000-0  72251-4 0  9993
2 42784  97.3891 339.2068 0013401  45.9347 314.2990 15.21914579 71725
DIAMOND GREEN           
1 42785U 17036W   18281.12304813  .00001168  00000-0  54617-4 0  9998
2 42785  97.3892 338.8972 0013400  47.2606 312.9755 15.21682241 71674
DIAMOND BLUE            
1 42786U 17036X   18280.92491711  .00001201  00000-0  56034-4 0  9993
2 42786  97.3892 338.7023 0013269  48.1987 312.0380 15.21683953 71728
NUDTSAT                 
1 42787U 17036Y   18280.88703287  .00001986  00000-0  88304-4 0  9998
2 42787  97.3902 339.0779 0012891  47.1235 313.1082 15.22599294 71511
SUCHAI                  
1 42788U 17036Z   18280.95116888  .00001594  00000-0  72283-4 0  9996
2 42788  97.3894 338.9706 0013022  47.1927 313.0402 15.22223436 71747
SKCUBE                  
1 42789U 17036AA  18280.88829710  .00001486  00000-0  67676-4 0  9994
2 42789  97.3892 338.8922 0012861  47.4105 312.8214 15.22166736 71653
VZLUSAT-1               
1 42790U 17036AB  18280.74362830  .00001753  00000-0  78310-4 0  9990
2 42790  97.3900 338.9434 0012482  48.0903 312.1396 15.22611021 71641
ROBUSTA-1B              
1 42792U 17036AD  18280.64873751  .00001368  00000-0  62299-4 0  9991
2 42792  97.3892 338.7430 0012472  49.2888 310.9429 15.22321501 71634
CICERO 6                
1 42793U 17036AE  18280.72317417  .00001102  00000-0  51115-4 0  9994
2 42793  97.3882 338.7669 0011701  50.4741 309.7528 15.22093534 71711
D-SAT                   
1 42794U 17036AF  18280.59521799  .00000122  00000-0  16390-4 0  9997
2 42794  97.5792 330.9307 0125343 268.0922  90.5938 14.90938312 70471
TOKI                    
1 42820U 98067MU  18280.99815608  .00044636  00000-0  31948-3 0  9992
2 42820  51.6327 144.8083 0002986 205.7693 154.3157 15.73251164 71589
MAZAALAI (NUMSAT-1)     
1 42822U 98067MW  18280.92971485  .00043124  00000-0  31489-3 0  9994
2 42822  51.6330 145.8627 0002833 207.6406 152.4442 15.72797539 71568
BRAC ONNESHA            
1 42823U 98067MX  18281.04249204  .00045575  00000-0  32943-3 0  9994
2 42823  51.6328 145.1397 0004087 239.2609 120.7988 15.73006423 71561
NIGERIAEDUSAT-1         
1 42824U 98067MY  18280.89502885  .00040799  00000-0  30010-3 0  9990
2 42824  51.6338 146.4291 0003976 238.7252 121.3357 15.72646255 71552
CORVUS BC2              
1 42846U 17042X   18280.95584476  .00000162  00000-0  21310-4 0  9995
2 42846  97.5850 179.6877 0009670 171.8385 188.2993 14.91865278 67183
CORVUS BC1              
1 42847U 17042Y   18280.79190868  .00000270  00000-0  31918-4 0  9991
2 42847  97.5852 179.5960 0009308 171.5346 188.6032 14.91963828 67155
SILU-1 (SILKROAD 1)     
1 42903U 17021F   18281.52882323  .00034876  00000-0  20284-3 0  9999
2 42903  42.7774 358.9141 0013813  18.7282 112.8378 15.77671966 67790
MIRATA                  
1 43015U 17073C   18280.85828466  .00001123  00000-0  94655-4 0  9997
2 43015  97.7065 207.1700 0255806 264.6900  92.5080 14.78407828 47788
MAKERSAT 0              
1 43016U 17073D   18280.77716671  .00000663  00000-0  58139-4 0  9998
2 43016  97.7092 207.2470 0257397 265.0296  92.1489 14.78334306 47761
